{
  "norad_id": 65312,
  "name": "HULIANWANG DIGUI-80",
  "history": [
    {
      "epoch": "2026-03-28T22:17:49.654752Z",
      "apogee_km": 1150.1152310451916,
      "perigee_km": 1148.5227224587506,
      "latitude_deg": 3.8414668000854964e-05,
      "longitude_deg": -27.045009109364933,
      "height_km": 1150.3892060839785,
      "semi_major_axis_km": 7527.455976751971,
      "eccentricity": 0.00010578,
      "inclination_deg": 50.0016,
      "raan_deg": 133.7543,
      "arg_perigee_deg": 224.9697,
      "mean_anomaly_deg": 135.109,
      "mean_motion_rev_day": 13.29322714
    },
    {
      "epoch": "2026-03-29T03:42:36.213120Z",
      "apogee_km": 1150.1160361773518,
      "perigee_km": 1148.5217210222636,
      "latitude_deg": -2.3457089963655912e-05,
      "longitude_deg": -109.2703551620067,
      "height_km": 1150.3824641265435,
      "semi_major_axis_km": 7527.455878599807,
      "eccentricity": 0.0001059,
      "inclination_deg": 50.0016,
      "raan_deg": 132.9453,
      "arg_perigee_deg": 225.7075,
      "mean_anomaly_deg": 134.371,
      "mean_motion_rev_day": 13.2932274
    },
    {
      "epoch": "2026-03-30T03:09:57.968352Z",
      "apogee_km": 1150.1164000481795,
      "perigee_km": 1148.5205794843496,
      "latitude_deg": 6.871570398732328e-05,
      "longitude_deg": -105.57972989714982,
      "height_km": 1150.3460346434058,
      "semi_major_axis_km": 7527.455489766265,
      "eccentricity": 0.000106,
      "inclination_deg": 50.0015,
      "raan_deg": 129.4398,
      "arg_perigee_deg": 229.2727,
      "mean_anomaly_deg": 130.8054,
      "mean_motion_rev_day": 13.29322843
    },
    {
      "epoch": "2026-03-30T04:58:13.487520Z",
      "apogee_km": 1150.1163134471772,
      "perigee_km": 1148.5206434348565,
      "latitude_deg": 3.09501755456821e-06,
      "longitude_deg": -132.98814820406676,
      "height_km": 1150.3447855236727,
      "semi_major_axis_km": 7527.455478441017,
      "eccentricity": 0.00010599,
      "inclination_deg": 50.0015,
      "raan_deg": 129.1702,
      "arg_perigee_deg": 229.3861,
      "mean_anomaly_deg": 130.6919,
      "mean_motion_rev_day": 13.29322846
    }
  ]
}